H-2A R/B                
1 38341U 12025E   25309.80985318  .00004833  00000+0  44999-3 0  9995
2 38341  98.4534 262.2154 0045619 359.8620   0.2577 14.94037826729715
SHIJIAN-16 (SJ-16)      
1 39358U 13057A   25310.32353074  .00007335  00000+0  72758-3 0  9991
2 39358  74.9744  58.5461 0016185  49.1066 311.1521 14.91797830653109
SL-4 R/B                
1 39679U 14021B   25310.05111927  .00019427  00000+0  47529-3 0  9991
2 39679  51.6072 218.7205 0104692  14.1345 346.2528 15.35266107637251
ALOS-2                  
1 39766U 14029A   25310.28890553  .00002610  00000+0  35619-3 0  9993
2 39766  97.9238  45.6534 0001212 101.8448 258.2899 14.79476096618629
YAOGAN-29               
1 41038U 15069A   25310.31367119  .00000642  00000+0  86015-4 0  9994
2 41038  98.0259 333.3615 0002476  58.9232 301.2223 14.82819515537599
ASTRO-H (HITOMI)        
1 41337U 16012A   25310.04938256  .00004486  00000+0  27082-3 0  9999
2 41337  30.9997  73.8392 0009887 169.0544 191.0310 15.09011796533533
HXMT (HUIYAN)           
1 42758U 17034A   25310.28921238  .00017483  00000+0  90059-3 0  9995
2 42758  43.0153 341.8177 0032865 177.4329 182.6692 15.15654206463802
CZ-2C R/B               
1 43521U 18054D   25310.04545134  .00087041  00000+0  79584-3 0  9995
2 43521  35.1363  68.2284 0024597 147.7202 212.5039 15.66170578409289
SAOCOM 1A               
1 43641U 18076A   25310.28374632  .00000647  00000+0  87828-4 0  9999
2 43641  97.8870 135.2338 0001346  91.1304 269.0063 14.82149811383083
H-2A R/B                
1 43682U 18084L   25310.09242327  .00021398  00000+0  61263-3 0  9997
2 43682  98.8799 136.6292 0029333  90.6649 269.7951 15.35547662386772
SAOCOM 1B               
1 46265U 20059A   25310.31502484  .00001028  00000+0  13577-3 0  9993
2 46265  97.8858 134.3671 0001394  92.6360 267.5012 14.82131765280470
CSS (TIANHE)            
1 48274U 21035A   25310.14417353  .00066877  00000+0  78556-3 0  9992
2 48274  41.4668 238.9361 0005882 331.1905  28.8608 15.60501928258311
