CCSDS_OMM_VERS = 2.0
CREATION_DATE  = 
ORIGINATOR     = 

OBJECT_NAME    = H-2A R/B
OBJECT_ID      = 2012-025E
CENTER_NAME    = EARTH
REF_FRAME      = TEME
TIME_SYSTEM    = UTC
MEAN_ELEMENT_THEORY = SGP/SGP4

EPOCH          = 2025-11-05T19:26:11.314752
MEAN_MOTION    = 14.94037826
ECCENTRICITY   = .00456192
INCLINATION    = 98.4534
RA_OF_ASC_NODE = 262.2154
ARG_OF_PERICENTER = 359.8620
MEAN_ANOMALY   = 0.2577

EPHEMERIS_TYPE = 0
CLASSIFICATION_TYPE = U
NORAD_CAT_ID   = 38341
ELEMENT_SET_NO = 999
REV_AT_EPOCH   = 72971
BSTAR          = .44998843E-3
MEAN_MOTION_DOT = .4833E-4
MEAN_MOTION_DDOT = 0

CCSDS_OMM_VERS = 2.0
CREATION_DATE  = 
ORIGINATOR     = 

OBJECT_NAME    = SHIJIAN-16 (SJ-16)
OBJECT_ID      = 2013-057A
CENTER_NAME    = EARTH
REF_FRAME      = TEME
TIME_SYSTEM    = UTC
MEAN_ELEMENT_THEORY = SGP/SGP4

EPOCH          = 2025-11-06T07:45:53.055936
MEAN_MOTION    = 14.91797830
ECCENTRICITY   = .00161855
INCLINATION    = 74.9744
RA_OF_ASC_NODE = 58.5461
ARG_OF_PERICENTER = 49.1066
MEAN_ANOMALY   = 311.1521

EPHEMERIS_TYPE = 0
CLASSIFICATION_TYPE = U
NORAD_CAT_ID   = 39358
ELEMENT_SET_NO = 999
REV_AT_EPOCH   = 65310
BSTAR          = .72758134E-3
MEAN_MOTION_DOT = .7335E-4
MEAN_MOTION_DDOT = 0

CCSDS_OMM_VERS = 2.0
CREATION_DATE  = 
ORIGINATOR     = 

OBJECT_NAME    = SL-4 R/B
OBJECT_ID      = 2014-021B
CENTER_NAME    = EARTH
REF_FRAME      = TEME
TIME_SYSTEM    = UTC
MEAN_ELEMENT_THEORY = SGP/SGP4

EPOCH          = 2025-11-06T01:13:36.704928
MEAN_MOTION    = 15.35266107
ECCENTRICITY   = .01046925
INCLINATION    = 51.6072
RA_OF_ASC_NODE = 218.7205
ARG_OF_PERICENTER = 14.1345
MEAN_ANOMALY   = 346.2528

EPHEMERIS_TYPE = 0
CLASSIFICATION_TYPE = U
NORAD_CAT_ID   = 39679
ELEMENT_SET_NO = 999
REV_AT_EPOCH   = 63725
BSTAR          = .47528762E-3
MEAN_MOTION_DOT = .19427E-3
MEAN_MOTION_DDOT = 0

CCSDS_OMM_VERS = 2.0
CREATION_DATE  = 
ORIGINATOR     = 

OBJECT_NAME    = ALOS-2
OBJECT_ID      = 2014-029A
CENTER_NAME    = EARTH
REF_FRAME      = TEME
TIME_SYSTEM    = UTC
MEAN_ELEMENT_THEORY = SGP/SGP4

EPOCH          = 2025-11-06T06:56:01.437792
MEAN_MOTION    = 14.79476096
ECCENTRICITY   = .00012129
INCLINATION    = 97.9238
RA_OF_ASC_NODE = 45.6534
ARG_OF_PERICENTER = 101.8448
MEAN_ANOMALY   = 258.2899

EPHEMERIS_TYPE = 0
CLASSIFICATION_TYPE = U
NORAD_CAT_ID   = 39766
ELEMENT_SET_NO = 999
REV_AT_EPOCH   = 61862
BSTAR          = .35619351E-3
MEAN_MOTION_DOT = .261E-4
MEAN_MOTION_DDOT = 0

CCSDS_OMM_VERS = 2.0
CREATION_DATE  = 
ORIGINATOR     = 

OBJECT_NAME    = YAOGAN-29
OBJECT_ID      = 2015-069A
CENTER_NAME    = EARTH
REF_FRAME      = TEME
TIME_SYSTEM    = UTC
MEAN_ELEMENT_THEORY = SGP/SGP4

EPOCH          = 2025-11-06T07:31:41.190816
MEAN_MOTION    = 14.82819515
ECCENTRICITY   = .00024768
INCLINATION    = 98.0259
RA_OF_ASC_NODE = 333.3615
ARG_OF_PERICENTER = 58.9232
MEAN_ANOMALY   = 301.2223

EPHEMERIS_TYPE = 0
CLASSIFICATION_TYPE = U
NORAD_CAT_ID   = 41038
ELEMENT_SET_NO = 999
REV_AT_EPOCH   = 53759
BSTAR          = .86014823E-4
MEAN_MOTION_DOT = .642E-5
MEAN_MOTION_DDOT = 0

CCSDS_OMM_VERS = 2.0
CREATION_DATE  = 
ORIGINATOR     = 

OBJECT_NAME    = ASTRO-H (HITOMI)
OBJECT_ID      = 2016-012A
CENTER_NAME    = EARTH
REF_FRAME      = TEME
TIME_SYSTEM    = UTC
MEAN_ELEMENT_THEORY = SGP/SGP4

EPOCH          = 2025-11-06T01:11:06.653184
MEAN_MOTION    = 15.09011796
ECCENTRICITY   = .00098878
INCLINATION    = 30.9997
RA_OF_ASC_NODE = 73.8392
ARG_OF_PERICENTER = 169.0544
MEAN_ANOMALY   = 191.0310

EPHEMERIS_TYPE = 0
CLASSIFICATION_TYPE = U
NORAD_CAT_ID   = 41337
ELEMENT_SET_NO = 999
REV_AT_EPOCH   = 53353
BSTAR          = .27082267E-3
MEAN_MOTION_DOT = .4486E-4
MEAN_MOTION_DDOT = 0

CCSDS_OMM_VERS = 2.0
CREATION_DATE  = 
ORIGINATOR     = 

OBJECT_NAME    = HXMT (HUIYAN)
OBJECT_ID      = 2017-034A
CENTER_NAME    = EARTH
REF_FRAME      = TEME
TIME_SYSTEM    = UTC
MEAN_ELEMENT_THEORY = SGP/SGP4

EPOCH          = 2025-11-06T06:56:27.949632
MEAN_MOTION    = 15.15654206
ECCENTRICITY   = .00328655
INCLINATION    = 43.0153
RA_OF_ASC_NODE = 341.8177
ARG_OF_PERICENTER = 177.4329
MEAN_ANOMALY   = 182.6692

EPHEMERIS_TYPE = 0
CLASSIFICATION_TYPE = U
NORAD_CAT_ID   = 42758
ELEMENT_SET_NO = 999
REV_AT_EPOCH   = 46380
BSTAR          = .90058684E-3
MEAN_MOTION_DOT = .17483E-3
MEAN_MOTION_DDOT = 0

CCSDS_OMM_VERS = 2.0
CREATION_DATE  = 
ORIGINATOR     = 

OBJECT_NAME    = CZ-2C R/B
OBJECT_ID      = 2018-054D
CENTER_NAME    = EARTH
REF_FRAME      = TEME
TIME_SYSTEM    = UTC
MEAN_ELEMENT_THEORY = SGP/SGP4

EPOCH          = 2025-11-06T01:05:26.995776
MEAN_MOTION    = 15.66170578
ECCENTRICITY   = .00245977
INCLINATION    = 35.1363
RA_OF_ASC_NODE = 68.2284
ARG_OF_PERICENTER = 147.7202
MEAN_ANOMALY   = 212.5039

EPHEMERIS_TYPE = 0
CLASSIFICATION_TYPE = U
NORAD_CAT_ID   = 43521
ELEMENT_SET_NO = 999
REV_AT_EPOCH   = 40928
BSTAR          = .7958391E-3
MEAN_MOTION_DOT = .87041E-3
MEAN_MOTION_DDOT = 0

CCSDS_OMM_VERS = 2.0
CREATION_DATE  = 
ORIGINATOR     = 

OBJECT_NAME    = SAOCOM 1A
OBJECT_ID      = 2018-076A
CENTER_NAME    = EARTH
REF_FRAME      = TEME
TIME_SYSTEM    = UTC
MEAN_ELEMENT_THEORY = SGP/SGP4

EPOCH          = 2025-11-06T06:48:35.682048
MEAN_MOTION    = 14.82149811
ECCENTRICITY   = .00013469
INCLINATION    = 97.8870
RA_OF_ASC_NODE = 135.2338
ARG_OF_PERICENTER = 91.1304
MEAN_ANOMALY   = 269.0063

EPHEMERIS_TYPE = 0
CLASSIFICATION_TYPE = U
NORAD_CAT_ID   = 43641
ELEMENT_SET_NO = 999
REV_AT_EPOCH   = 38308
BSTAR          = .87828101E-4
MEAN_MOTION_DOT = .647E-5
MEAN_MOTION_DDOT = 0

CCSDS_OMM_VERS = 2.0
CREATION_DATE  = 
ORIGINATOR     = 

OBJECT_NAME    = H-2A R/B
OBJECT_ID      = 2018-084L
CENTER_NAME    = EARTH
REF_FRAME      = TEME
TIME_SYSTEM    = UTC
MEAN_ELEMENT_THEORY = SGP/SGP4

EPOCH          = 2025-11-06T02:13:05.370528
MEAN_MOTION    = 15.35547662
ECCENTRICITY   = .00293338
INCLINATION    = 98.8799
RA_OF_ASC_NODE = 136.6292
ARG_OF_PERICENTER = 90.6649
MEAN_ANOMALY   = 269.7951

EPHEMERIS_TYPE = 0
CLASSIFICATION_TYPE = U
NORAD_CAT_ID   = 43682
ELEMENT_SET_NO = 999
REV_AT_EPOCH   = 38677
BSTAR          = .61263432E-3
MEAN_MOTION_DOT = .21398E-3
MEAN_MOTION_DDOT = 0

CCSDS_OMM_VERS = 2.0
CREATION_DATE  = 
ORIGINATOR     = 

OBJECT_NAME    = SAOCOM 1B
OBJECT_ID      = 2020-059A
CENTER_NAME    = EARTH
REF_FRAME      = TEME
TIME_SYSTEM    = UTC
MEAN_ELEMENT_THEORY = SGP/SGP4

EPOCH          = 2025-11-06T07:33:38.146176
MEAN_MOTION    = 14.82131765
ECCENTRICITY   = .0001394
INCLINATION    = 97.8858
RA_OF_ASC_NODE = 134.3671
ARG_OF_PERICENTER = 92.6360
MEAN_ANOMALY   = 267.5012

EPHEMERIS_TYPE = 0
CLASSIFICATION_TYPE = U
NORAD_CAT_ID   = 46265
ELEMENT_SET_NO = 999
REV_AT_EPOCH   = 28047
BSTAR          = .13576742E-3
MEAN_MOTION_DOT = .1028E-4
MEAN_MOTION_DDOT = 0

CCSDS_OMM_VERS = 2.0
CREATION_DATE  = 
ORIGINATOR     = 

OBJECT_NAME    = CSS (TIANHE)
OBJECT_ID      = 2021-035A
CENTER_NAME    = EARTH
REF_FRAME      = TEME
TIME_SYSTEM    = UTC
MEAN_ELEMENT_THEORY = SGP/SGP4

EPOCH          = 2025-11-06T03:27:36.592992
MEAN_MOTION    = 15.60501928
ECCENTRICITY   = .00058828
INCLINATION    = 41.4668
RA_OF_ASC_NODE = 238.9361
ARG_OF_PERICENTER = 331.1905
MEAN_ANOMALY   = 28.8608

EPHEMERIS_TYPE = 0
CLASSIFICATION_TYPE = U
NORAD_CAT_ID   = 48274
ELEMENT_SET_NO = 999
REV_AT_EPOCH   = 25831
BSTAR          = .78556468E-3
MEAN_MOTION_DOT = .66877E-3
MEAN_MOTION_DDOT = 0

